{
  "type": "FeatureCollection",
  "features": [
    {
      "type": "Feature",
      "properties": {
        "norad_id": 38867,
        "name": "INTELSAT 23 (IS-23)",
        "group": "intelsat",
        "lat": 0.01614167258691728,
        "lon": 169.94845694233402,
        "alt_km": 35787.6796245022,
        "timestamp": "2025-12-19T08:58:49.005072+00:00",
        "meta_object_name": "INTELSAT 23 (IS-23)",
        "meta_object_id": "2012-057A",
        "meta_epoch": "2025-12-18T19:53:31.711200",
        "meta_mean_motion": 1.00270788,
        "meta_eccentricity": 5.755e-05,
        "meta_inclination": 0.0166,
        "meta_ra_of_asc_node": 33.3126,
        "meta_arg_of_pericenter": 257.9968,
        "meta_mean_anomaly": 41.7981,
        "meta_ephemeris_type": 0,
        "meta_classification_type": "U",
        "meta_norad_cat_id": 38867,
        "meta_element_set_no": 999,
        "meta_rev_at_epoch": 4814,
        "meta_bstar": 0,
        "meta_mean_motion_dot": -2.6e-06,
        "meta_mean_motion_ddot": 0,
        "tle_line1": "1 38867U 12057A   25352.82883925 -.00000260  00000+0  00000+0 0  9996",
        "tle_line2": "2 38867   0.0166  33.3126 0000575 257.9968  41.7981  1.00270788 48148"
      },
      "geometry": {
        "type": "Point",
        "coordinates": [
          169.94845694233402,
          0.01614167258691728
        ]
      }
    },
    {
      "type": "Feature",
      "properties": {
        "norad_id": 39360,
        "name": "FM-6",
        "group": "intelsat",
        "lat": 0.020350887760622643,
        "lon": 106.73223527575811,
        "alt_km": 35782.093855225554,
        "timestamp": "2025-12-19T08:58:49.005084+00:00",
        "meta_object_name": "FM-6",
        "meta_object_id": "2013-058A",
        "meta_epoch": "2025-12-18T14:27:20.008224",
        "meta_mean_motion": 1.00273107,
        "meta_eccentricity": 0.00028667,
        "meta_inclination": 0.0123,
        "meta_ra_of_asc_node": 67.2703,
        "meta_arg_of_pericenter": 112.0416,
        "meta_mean_anomaly": 8.8268,
        "meta_ephemeris_type": 0,
        "meta_classification_type": "U",
        "meta_norad_cat_id": 39360,
        "meta_element_set_no": 999,
        "meta_rev_at_epoch": 4426,
        "meta_bstar": 0,
        "meta_mean_motion_dot": 8e-08,
        "meta_mean_motion_ddot": 0,
        "tle_line1": "1 39360U 13058A   25352.60231491  .00000008  00000+0  00000+0 0  9997",
        "tle_line2": "2 39360   0.0123  67.2703 0002866 112.0416   8.8268  1.00273107 44260"
      },
      "geometry": {
        "type": "Point",
        "coordinates": [
          106.73223527575811,
          0.020350887760622643
        ]
      }
    },
    {
      "type": "Feature",
      "properties": {
        "norad_id": 40271,
        "name": "INTELSAT 30 (IS-30)",
        "group": "intelsat",
        "lat": 0.03470097915298301,
        "lon": 127.87244831590617,
        "alt_km": 35780.950445785806,
        "timestamp": "2025-12-19T08:58:49.005096+00:00",
        "meta_object_name": "INTELSAT 30 (IS-30)",
        "meta_object_id": "2014-062A",
        "meta_epoch": "2025-12-18T19:41:32.858016",
        "meta_mean_motion": 1.00270753,
        "meta_eccentricity": 0.00016199,
        "meta_inclination": 0.0158,
        "meta_ra_of_asc_node": 28.0219,
        "meta_arg_of_pericenter": 62.3101,
        "meta_mean_anomaly": 197.679,
        "meta_ephemeris_type": 0,
        "meta_classification_type": "U",
        "meta_norad_cat_id": 40271,
        "meta_element_set_no": 999,
        "meta_rev_at_epoch": 498,
        "meta_bstar": 0,
        "meta_mean_motion_dot": -1.26e-06,
        "meta_mean_motion_ddot": 0,
        "tle_line1": "1 40271U 14062A   25352.82051919 -.00000126  00000+0  00000+0 0  9997",
        "tle_line2": "2 40271   0.0158  28.0219 0001619  62.3101 197.6790  1.00270753  4987"
      },
      "geometry": {
        "type": "Point",
        "coordinates": [
          127.87244831590617,
          0.03470097915298301
        ]
      }
    },
    {
      "type": "Feature",
      "properties": {
        "norad_id": 40333,
        "name": "DIRECTV 14",
        "group": "intelsat",
        "lat": 0.02745368088168938,
        "lon": 123.70411777054261,
        "alt_km": 35783.9762631396,
        "timestamp": "2025-12-19T08:58:49.005108+00:00",
        "meta_object_name": "DIRECTV 14",
        "meta_object_id": "2014-078B",
        "meta_epoch": "2025-12-18T20:48:57.002688",
        "meta_mean_motion": 1.00273138,
        "meta_eccentricity": 5.178e-05,
        "meta_inclination": 0.0185,
        "meta_ra_of_asc_node": 335.9821,
        "meta_arg_of_pericenter": 184.6826,
        "meta_mean_anomaly": 140.0852,
        "meta_ephemeris_type": 0,
        "meta_classification_type": "U",
        "meta_norad_cat_id": 40333,
        "meta_element_set_no": 999,
        "meta_rev_at_epoch": 4023,
        "meta_bstar": 0,
        "meta_mean_motion_dot": -1.01e-06,
        "meta_mean_motion_ddot": 0,
        "tle_line1": "1 40333U 14078B   25352.86732642 -.00000101  00000+0  00000+0 0  9999",
        "tle_line2": "2 40333   0.0185 335.9821 0000517 184.6826 140.0852  1.00273138 40232"
      },
      "geometry": {
        "type": "Point",
        "coordinates": [
          123.70411777054261,
          0.02745368088168938
        ]
      }
    },
    {
      "type": "Feature",
      "properties": {
        "norad_id": 40663,
        "name": "DIRECTV 15",
        "group": "intelsat",
        "lat": 0.02761876688171066,
        "lon": 120.04849238694717,
        "alt_km": 35785.31216906787,
        "timestamp": "2025-12-19T08:58:49.005119+00:00",
        "meta_object_name": "DIRECTV 15",
        "meta_object_id": "2015-026A",
        "meta_epoch": "2025-12-18T23:04:43.398624",
        "meta_mean_motion": 1.00271565,
        "meta_eccentricity": 1.983e-05,
        "meta_inclination": 0.0143,
        "meta_ra_of_asc_node": 337.2371,
        "meta_arg_of_pericenter": 138.4483,
        "meta_mean_anomaly": 215.4442,
        "meta_ephemeris_type": 0,
        "meta_classification_type": "U",
        "meta_norad_cat_id": 40663,
        "meta_element_set_no": 999,
        "meta_rev_at_epoch": 3865,
        "meta_bstar": 0,
        "meta_mean_motion_dot": -7.8e-07,
        "meta_mean_motion_ddot": 0,
        "tle_line1": "1 40663U 15026A   25352.96161341 -.00000078  00000+0  00000+0 0  9995",
        "tle_line2": "2 40663   0.0143 337.2371 0000198 138.4483 215.4442  1.00271565 38655"
      },
      "geometry": {
        "type": "Point",
        "coordinates": [
          120.04849238694717,
          0.02761876688171066
        ]
      }
    },
    {
      "type": "Feature",
      "properties": {
        "norad_id": 40664,
        "name": "SKY MEXICO-1",
        "group": "intelsat",
        "lat": 0.0044414286965178676,
        "lon": 144.13808741110478,
        "alt_km": 35793.38448587808,
        "timestamp": "2025-12-19T08:58:49.005130+00:00",
        "meta_object_name": "SKY MEXICO-1",
        "meta_object_id": "2015-026B",
        "meta_epoch": "2025-12-18T19:46:09.916032",
        "meta_mean_motion": 1.00272475,
        "meta_eccentricity": 0.00023066,
        "meta_inclination": 0.0132,
        "meta_ra_of_asc_node": 316.5627,
        "meta_arg_of_pericenter": 327.4782,
        "meta_mean_anomaly": 21.4186,
        "meta_ephemeris_type": 0,
        "meta_classification_type": "U",
        "meta_norad_cat_id": 40664,
        "meta_element_set_no": 999,
        "meta_rev_at_epoch": 3864,
        "meta_bstar": 0,
        "meta_mean_motion_dot": -2.1e-06,
        "meta_mean_motion_ddot": 0,
        "tle_line1": "1 40664U 15026B   25352.82372588 -.00000210  00000+0  00000+0 0  9996",
        "tle_line2": "2 40664   0.0132 316.5627 0002306 327.4782  21.4186  1.00272475 38643"
      },
      "geometry": {
        "type": "Point",
        "coordinates": [
          144.13808741110478,
          0.0044414286965178676
        ]
      }
    },
    {
      "type": "Feature",
      "properties": {
        "norad_id": 40874,
        "name": "INTELSAT 34 (IS-34)",
        "group": "intelsat",
        "lat": -0.0003654916998921839,
        "lon": 167.40582799332356,
        "alt_km": 35784.54115570729,
        "timestamp": "2025-12-19T08:58:49.005143+00:00",
        "meta_object_name": "INTELSAT 34 (IS-34)",
        "meta_object_id": "2015-039A",
        "meta_epoch": "2025-12-18T19:52:46.782336",
        "meta_mean_motion": 1.00269757,
        "meta_eccentricity": 5.944e-05,
        "meta_inclination": 0.0159,
        "meta_ra_of_asc_node": 344.6956,
        "meta_arg_of_pericenter": 153.3113,
        "meta_mean_anomaly": 192.3634,
        "meta_ephemeris_type": 0,
        "meta_classification_type": "U",
        "meta_norad_cat_id": 40874,
        "meta_element_set_no": 999,
        "meta_rev_at_epoch": 3781,
        "meta_bstar": 0,
        "meta_mean_motion_dot": -2.6e-06,
        "meta_mean_motion_ddot": 0,
        "tle_line1": "1 40874U 15039A   25352.82831924 -.00000260  00000+0  00000+0 0  9992",
        "tle_line2": "2 40874   0.0159 344.6956 0000594 153.3113 192.3634  1.00269757 37816"
      },
      "geometry": {
        "type": "Point",
        "coordinates": [
          167.40582799332356,
          -0.0003654916998921839
        ]
      }
    }
  ]
}